STARLINK-31036          
1 58533U 23192C   26180.53663257 -.00000407  00000+0 -90607-6 0  9995
2 58533  53.1609 261.5551 0001385  99.7456 260.3703 15.34394042143130
STARLINK-30936          
1 58534U 23192D   26180.50840223  .00000558  00000+0  29728-4 0  9992
2 58534  53.1604 252.8531 0000775  87.4335 272.6755 15.31710118143258
STARLINK-31032          
1 58535U 23192E   26180.50717307  .00003198  00000+0  10577-3 0  9993
2 58535  53.1597 261.3454 0001327 110.1485 249.9660 15.34397069143131
STARLINK-31037          
1 58536U 23192F   26180.55766845  .00002701  00000+0  91105-4 0  9996
2 58536  53.1600 261.6758 0000902  88.6302 271.4804 15.34375069143138
STARLINK-31041          
1 58537U 23192G   26180.49885970 -.00002646  00000+0 -67254-4 0  9999
2 58537  53.1600 261.9996 0001172  77.3773 282.7361 15.34378236143124
STARLINK-31014          
1 58538U 23192H   26180.53873022  .00001507  00000+0  55715-4 0  9992
2 58538  53.1595 261.5391 0001104  99.3755 260.7373 15.34399775143133
STARLINK-31055          
1 58539U 23192J   26180.52610953  .00005915  00000+0  18606-3 0  9998
2 58539  53.1584 261.4584 0001207  92.2974 267.8167 15.34399780143139
STARLINK-31019          
1 58540U 23192K   26180.55135466  .00000036  00000+0  12214-4 0  9993
2 58540  53.1601 261.6157 0001284  86.2096 273.9054 15.34396432143136
STARLINK-31045          
1 58541U 23192L   26179.85502391  .00001549  00000+0  64422-4 0  9998
2 58541  53.1626 343.2285 0001133  96.6703 263.4427 15.30186994141914
STARLINK-31030          
1 58542U 23192M   26180.46307837  .00001187  00000+0  46284-4 0  9990
2 58542  53.1607 261.7749 0001316  97.4092 262.7060 15.34391679143128
STARLINK-31049          
1 58543U 23192N   26180.53031934 -.00001560  00000+0 -35066-4 0  9994
2 58543  53.1600 261.4851 0001120  98.8408 261.2722 15.34391510143136
STARLINK-31048          
1 58544U 23192P   26180.53955297 -.00001062  00000+0 -23734-4 0  9998
2 58544  53.1602 262.9157 0001191  93.4124 266.7013 15.30199221143110
STARLINK-31057          
1 58545U 23192Q   26180.53451911  .00003787  00000+0  12324-3 0  9999
2 58545  53.1601 261.5094 0001491 102.0992 258.0177 15.34378175143136
STARLINK-31050          
1 58546U 23192R   26180.48962503 -.00192696  00000+0 -61160-2 0  9999
2 58546  53.1601 261.9397 0008051  91.8971 268.2953 15.32894668143120
STARLINK-31063          
1 58547U 23192S   26180.46377543 -.00001458  00000+0 -37115-4 0  9992
2 58547  53.1586 253.2175 0001093 110.6186 249.4932 15.30186330143247
STARLINK-31016          
1 58548U 23192T   26180.47739628  .00000666  00000+0  34597-4 0  9999
2 58548  53.1596 263.2380 0001099  79.1140 280.9985 15.30197359143109
STARLINK-31053          
1 58549U 23192U   26180.47569904 -.00000010  00000+0  10835-4 0  9991
2 58549  53.1596 261.8526 0001365  93.5649 266.5510 15.34393541143127
STARLINK-31056          
1 58550U 23192V   26180.54587698  .00001724  00000+0  70307-4 0  9993
2 58550  53.1615 262.9993 0001235  77.4954 282.6184 15.30210346143119
STARLINK-30999          
1 58551U 23192W   26180.50003471  .00037292  00000+0  11158-2 0  9998
2 58551  53.1582 253.3546 0001192 306.7988  58.0040 15.34215510  5900
STARLINK-31046          
1 58552U 23192X   26180.49042578 -.00002160  00000+0 -52783-4 0  9997
2 58552  53.1601 261.9406 0001324  98.1304 261.9849 15.34408387143129
HONGHU 2                
1 58555U 23193C   26180.48552811 -.00170457  00000+0 -59245-2 0  9999
2 58555  97.2787 170.7717 0039165 221.7514 138.0737 15.29640587103905
YAOGAN-39 05A           
1 58557U 23194A   26180.55399856  .00010122  00000+0  42207-3 0  9999
2 58557  35.0025 339.6107 0005375  61.3441 298.7814 15.22916537142248
YAOGAN-39 05B           
1 58558U 23194B   26180.54473196  .00005843  00000+0  28395-3 0  9995
2 58558  34.9932   4.1101 0009006  64.4220 295.7423 15.17760415141974
YAOGAN-39 05C           
1 58559U 23194C   26180.54885869  .00006455  00000+0  31328-3 0  9990
2 58559  34.9929   4.1085 0011719 153.8133 206.3174 15.17758430142002
ALISIO-1                
1 58562U 23185M   26180.52154075  .00003363  00000+0  17289-3 0  9995
2 58562  97.5371 253.8067 0004694 271.6558  88.4137 15.17144834140428
QPS-SAR-5 (TSUKUYOMI-I) 
1 58578U 23196A   26180.50229119  .00011361  00000+0  48006-3 0  9992
2 58578  42.0117 305.7510 0026243   1.0861 359.0026 15.22870921140124
YAOGAN-41               
1 58582U 23197A   26180.56238749 -.00000347  00000+0  00000+0 0  9994
2 58582   3.1065 313.3241 0014318 195.6320  94.3277  1.00275156  9441
ARKTIKA-M 2             
1 58584U 23198A   26177.23312466  .00000156  00000+0  00000+0 0  9993
2 58584  63.2200 153.3551 6904874 267.3978  18.7558  2.00610703 18505
STARLINK-31044          
1 58589U 23200A   26179.94937503  .00000242  00000+0  18336-4 0  9999
2 58589  43.0021 260.7546 0002356 269.0964  90.9617 15.27585600140623
STARLINK-31062          
1 58590U 23200B   26179.92190579  .00001927  00000+0  79568-4 0  9998
2 58590  43.0043 263.9754 0001482 269.7556  90.3125 15.27571940140583
