OBJECT_NAME,OBJECT_ID,EPOCH,MEAN_MOTION,ECCENTRICITY,INCLINATION,RA_OF_ASC_NODE,ARG_OF_PERICENTER,MEAN_ANOMALY,EPHEMERIS_TYPE,CLASSIFICATION_TYPE,NORAD_CAT_ID,ELEMENT_SET_NO,REV_AT_EPOCH,BSTAR,MEAN_MOTION_DOT,MEAN_MOTION_DDOT
STARLINK-31036,2023-192C,2026-06-29T12:52:45.054048,15.34394042,.0001385,53.1609,261.5551,99.7456,260.3703,0,U,58533,999,14313,-.90607E-6,-.407E-5,0
STARLINK-30936,2023-192D,2026-06-29T12:12:05.952672,15.31710118,.0000775,53.1604,252.8531,87.4335,272.6755,0,U,58534,999,14325,.29728E-4,.558E-5,0
STARLINK-31032,2023-192E,2026-06-29T12:10:19.753248,15.34397069,.0001327,53.1597,261.3454,110.1485,249.9660,0,U,58535,999,14313,.10577E-3,.3198E-4,0
STARLINK-31037,2023-192F,2026-06-29T13:23:02.554080,15.34375069,.0000902,53.1600,261.6758,88.6302,271.4804,0,U,58536,999,14313,.91105E-4,.2701E-4,0
STARLINK-31041,2023-192G,2026-06-29T11:58:21.478080,15.34378236,.0001172,53.1600,261.9996,77.3773,282.7361,0,U,58537,999,14312,-.67254E-4,-.2646E-4,0
STARLINK-31014,2023-192H,2026-06-29T12:55:46.291008,15.34399775,.0001104,53.1595,261.5391,99.3755,260.7373,0,U,58538,999,14313,.55715E-4,.1507E-4,0
STARLINK-31055,2023-192J,2026-06-29T12:37:35.863392,15.34399780,.0001207,53.1584,261.4584,92.2974,267.8167,0,U,58539,999,14313,.18606E-3,.5915E-4,0
STARLINK-31019,2023-192K,2026-06-29T13:13:57.042624,15.34396432,.0001284,53.1601,261.6157,86.2096,273.9054,0,U,58540,999,14313,.12214E-4,.36E-6,0
STARLINK-31045,2023-192L,2026-06-28T20:31:14.065824,15.30186994,.00011339,53.1626,343.2285,96.6703,263.4427,0,U,58541,999,14191,.64422415E-4,.1549E-4,0
STARLINK-31030,2023-192M,2026-06-29T11:06:49.971168,15.34391679,.0001316,53.1607,261.7749,97.4092,262.7060,0,U,58542,999,14312,.46284E-4,.1187E-4,0
STARLINK-31049,2023-192N,2026-06-29T12:43:39.590976,15.34391510,.000112,53.1600,261.4851,98.8408,261.2722,0,U,58543,999,14313,-.35066E-4,-.156E-4,0
STARLINK-31048,2023-192P,2026-06-29T12:56:57.376608,15.30199221,.0001191,53.1602,262.9157,93.4124,266.7013,0,U,58544,999,14311,-.23734E-4,-.1062E-4,0
STARLINK-31057,2023-192Q,2026-06-29T12:49:42.451104,15.34378175,.0001491,53.1601,261.5094,102.0992,258.0177,0,U,58545,999,14313,.12324E-3,.3787E-4,0
STARLINK-31050,2023-192R,2026-06-29T11:45:03.602592,15.32894668,.0008051,53.1601,261.9397,91.8971,268.2953,0,U,58546,999,14312,-.6116E-2,-.192696E-2,0
STARLINK-31063,2023-192S,2026-06-29T11:07:50.197152,15.30186330,.0001093,53.1586,253.2175,110.6186,249.4932,0,U,58547,999,14324,-.37115E-4,-.1458E-4,0
STARLINK-31016,2023-192T,2026-06-29T11:27:27.038592,15.30197359,.0001099,53.1596,263.2380,79.1140,280.9985,0,U,58548,999,14310,.34597E-4,.666E-5,0
STARLINK-31053,2023-192U,2026-06-29T11:25:00.397056,15.34393541,.0001365,53.1596,261.8526,93.5649,266.5510,0,U,58549,999,14312,.10835E-4,-.1E-6,0
STARLINK-31056,2023-192V,2026-06-29T13:06:03.771072,15.30210346,.0001235,53.1615,262.9993,77.4954,282.6184,0,U,58550,999,14311,.70307E-4,.1724E-4,0
STARLINK-30999,2023-192W,2026-06-29T12:00:02.998944,15.34215510,.0001192,53.1582,253.3546,306.7988,58.0040,0,U,58551,999,590,.11158E-2,.37292E-3,0
STARLINK-31046,2023-192X,2026-06-29T11:46:12.787392,15.34408387,.0001324,53.1601,261.9406,98.1304,261.9849,0,U,58552,999,14312,-.52783E-4,-.216E-4,0
HONGHU 2,2023-193C,2026-06-29T11:39:09.628704,15.29640587,.0039165,97.2787,170.7717,221.7514,138.0737,0,U,58555,999,10390,-.59245E-2,-.170457E-2,0
YAOGAN-39 05A,2023-194A,2026-06-29T13:17:45.475584,15.22916537,.0005375,35.0025,339.6107,61.3441,298.7814,0,U,58557,999,14224,.42207E-3,.10122E-3,0
YAOGAN-39 05B,2023-194B,2026-06-29T13:04:24.841344,15.17760415,.0009006,34.9932,4.1101,64.4220,295.7423,0,U,58558,999,14197,.28395E-3,.5843E-4,0
YAOGAN-39 05C,2023-194C,2026-06-29T13:10:21.390816,15.17758430,.0011719,34.9929,4.1085,153.8133,206.3174,0,U,58559,999,14200,.31328E-3,.6455E-4,0
ALISIO-1,2023-185M,2026-06-29T12:31:01.120800,15.17144834,.0004694,97.5371,253.8067,271.6558,88.4137,0,U,58562,999,14042,.17289E-3,.3363E-4,0
QPS-SAR-5 (TSUKUYOMI-I),2023-196A,2026-06-29T12:03:17.958816,15.22870921,.0026243,42.0117,305.7510,1.0861,359.0026,0,U,58578,999,14012,.48006E-3,.11361E-3,0
YAOGAN-41,2023-197A,2026-06-29T13:29:50.279136,1.00275156,.0014318,3.1065,313.3241,195.6320,94.3277,0,U,58582,999,944,0,-.347E-5,0
ARKTIKA-M 2,2023-198A,2026-06-26T05:35:41.970624,2.00610703,.69048743,63.2200,153.3551,267.3978,18.7558,0,U,58584,999,1850,0,.156E-5,0
STARLINK-31044,2023-200A,2026-06-28T22:47:06.002592,15.27585600,.00023569,43.0021,260.7546,269.0964,90.9617,0,U,58589,999,14062,.18336056E-4,.242E-5,0
STARLINK-31062,2023-200B,2026-06-28T22:07:32.660256,15.27571940,.00014824,43.0043,263.9754,269.7556,90.3125,0,U,58590,999,14058,.79567906E-4,.1927E-4,0
